LEMUR-2-CELIJO-SB-PK    
1 66781U 25276DW  26166.70237035  .00005451  00000+0  44291-3 0  9995
2 66781  97.5261 237.5287 0008896 137.8697 222.3213 14.99965435 22404
LEMUR-2-FINNIAN         
1 66782U 25276DX  26166.74644292  .00005948  00000+0  47787-3 0  9991
2 66782  97.5287 237.7833 0008832  93.4681 266.7554 15.00362767 19781
LEMUR-2-STARLIGHT       
1 66783U 25276DY  26166.70149189  .00004428  00000+0  36895-3 0  9993
2 66783  97.5269 237.3909 0015203 132.0998 228.1521 14.99029420 29974
LEMUR-2-TARTIFLETTE     
1 66784U 25276DZ  26166.69999774  .00004478  00000+0  37291-3 0  9991
2 66784  97.5273 237.3960 0014064 138.3793 221.8503 14.99059830 29971
LEMUR-2-VUKASIN         
1 66785U 25276EA  26166.76163485  .00005114  00000+0  41181-3 0  9993
2 66785  97.5311 237.7479 0006196 127.0394 233.1398 15.00356128 29930
LEMUR-2-HOTSPUR-TOM     
1 66786U 25276EB  26166.42543774  .00005369  00000+0  44725-3 0  9999
2 66786  97.5269 237.1123 0015538 132.7731 227.4803 14.98944096 29863
LEMUR-2-MYRA            
1 66787U 25276EC  26166.92639022  .00006470  00000+0  52012-3 0  9999
2 66787  97.5218 237.8484 0016448 145.5092 214.7203 15.00229810 30025
LEMUR-2 FIKRETDENGIZ    
1 67363U 26004A   26166.92415604  .00003265  00000+0  35854-3 0  9992
2 67363  97.8009 165.5015 0009984 136.7855 223.4147 14.88316629 23093
TWILIGHT-1 OBJECT B     
1 67364U 26004B   26166.94808712  .00001599  00000+0  18139-3 0  9996
2 67364  97.8061 165.5409 0009846 127.7812 232.4298 14.87698526 23106
LEMUR-2-MARIO-SOUSA     
1 67365U 26004C   26166.70626439  .00003268  00000+0  35723-3 0  9998
2 67365  97.7985 165.2834 0009558 137.7631 222.4324 14.88504302 23074
LEMUR-2-SONNENBLUME     
1 67367U 26004E   26166.90615685  .00002108  00000+0  23368-3 0  9997
2 67367  97.7981 165.4652 0009059 138.8056 221.3846 14.88310813 23104
LEMUR-2-WOBLER          
1 67368U 26004F   26166.96703954  .00002755  00000+0  30209-3 0  9991
2 67368  97.8034 165.6462 0009516 128.9850 231.2216 14.88510576 23116
LEMUR-2-GRAM-E-SUE      
1 67370U 26004H   26166.95765137  .00002038  00000+0  22535-3 0  9991
2 67370  97.7967 165.5309 0008114 139.1922 220.9904 14.88466870 23115
LEMUR-2-KATIE           
1 67387U 26004AA  26166.94622718  .00003313  00000+0  34888-3 0  9996
2 67387  97.8032 165.9749 0004849  96.0211 264.1559 14.90041818 23123
LEMUR-2-HCS-BAZUS       
1 67388U 26004AB  26166.94530478  .00004933  00000+0  51632-3 0  9993
2 67388  97.8017 165.9548 0004426  92.6005 267.5719 14.90060238 23120
