OBJECT_NAME,OBJECT_ID,EPOCH,MEAN_MOTION,ECCENTRICITY,INCLINATION,RA_OF_ASC_NODE,ARG_OF_PERICENTER,MEAN_ANOMALY,EPHEMERIS_TYPE,CLASSIFICATION_TYPE,NORAD_CAT_ID,ELEMENT_SET_NO,REV_AT_EPOCH,BSTAR,MEAN_MOTION_DOT,MEAN_MOTION_DDOT
LEMUR-2-CELIJO-SB-PK,2025-276DW,2026-06-15T16:51:24.798240,14.99965435,.00088961,97.5261,237.5287,137.8697,222.3213,0,U,66781,999,2240,.44290952E-3,.5451E-4,0
LEMUR-2-FINNIAN,2025-276DX,2026-06-15T17:54:52.668288,15.00362767,.00088324,97.5287,237.7833,93.4681,266.7554,0,U,66782,999,1978,.4778726E-3,.5948E-4,0
LEMUR-2-STARLIGHT,2025-276DY,2026-06-15T16:50:08.899296,14.99029420,.00152032,97.5269,237.3909,132.0998,228.1521,0,U,66783,999,2997,.36894693E-3,.4428E-4,0
LEMUR-2-TARTIFLETTE,2025-276DZ,2026-06-15T16:47:59.804736,14.99059830,.00140641,97.5273,237.3960,138.3793,221.8503,0,U,66784,999,2997,.37290862E-3,.4478E-4,0
LEMUR-2-VUKASIN,2025-276EA,2026-06-15T18:16:45.251040,15.00356128,.00061962,97.5311,237.7479,127.0394,233.1398,0,U,66785,999,2993,.41180735E-3,.5114E-4,0
LEMUR-2-HOTSPUR-TOM,2025-276EB,2026-06-15T10:12:37.820736,14.98944096,.00155381,97.5269,237.1123,132.7731,227.4803,0,U,66786,999,2986,.44724829E-3,.5369E-4,0
LEMUR-2-MYRA,2025-276EC,2026-06-15T22:14:00.115008,15.00229810,.0016448,97.5218,237.8484,145.5092,214.7203,0,U,66787,999,3002,.52012061E-3,.647E-4,0
LEMUR-2 FIKRETDENGIZ,2026-004A,2026-06-15T22:10:47.081856,14.88316629,.00099842,97.8009,165.5015,136.7855,223.4147,0,U,67363,999,2309,.3585394E-3,.3265E-4,0
TWILIGHT-1 OBJECT B,2026-004B,2026-06-15T22:45:14.727168,14.87698526,.0009846,97.8061,165.5409,127.7812,232.4298,0,U,67364,999,2310,.18139062E-3,.1599E-4,0
LEMUR-2-MARIO-SOUSA,2026-004C,2026-06-15T16:57:01.243296,14.88504302,.0009558,97.7985,165.2834,137.7631,222.4324,0,U,67365,999,2307,.35722902E-3,.3268E-4,0
LEMUR-2-SONNENBLUME,2026-004E,2026-06-15T21:44:51.951840,14.88310813,.00090596,97.7981,165.4652,138.8056,221.3846,0,U,67367,999,2310,.23368075E-3,.2108E-4,0
LEMUR-2-WOBLER,2026-004F,2026-06-15T23:12:32.216256,14.88510576,.00095168,97.8034,165.6462,128.9850,231.2216,0,U,67368,999,2311,.30208597E-3,.2755E-4,0
LEMUR-2-GRAM-E-SUE,2026-004H,2026-06-15T22:59:01.078368,14.88466870,.00081141,97.7967,165.5309,139.1922,220.9904,0,U,67370,999,2311,.22534907E-3,.2038E-4,0
LEMUR-2-KATIE,2026-004AA,2026-06-15T22:42:34.028352,14.90041818,.00048499,97.8032,165.9749,96.0211,264.1559,0,U,67387,999,2312,.34887795E-3,.3313E-4,0
LEMUR-2-HCS-BAZUS,2026-004AB,2026-06-15T22:41:14.332992,14.90060238,.00044267,97.8017,165.9548,92.6005,267.5719,0,U,67388,999,2312,.51632019E-3,.4933E-4,0
